CCSDS_OMM_VERS = 2.0
CREATION_DATE  = 
ORIGINATOR     = 

OBJECT_NAME    = SL-3 R/B
OBJECT_ID      = 1982-079B
CENTER_NAME    = EARTH
REF_FRAME      = TEME
TIME_SYSTEM    = UTC
MEAN_ELEMENT_THEORY = SGP/SGP4

EPOCH          = 2026-03-18T11:02:21.771744
MEAN_MOTION    = 15.24925107
ECCENTRICITY   = .0025362
INCLINATION    = 81.1491
RA_OF_ASC_NODE = 182.7225
ARG_OF_PERICENTER = 135.6960
MEAN_ANOMALY   = 224.6309

EPHEMERIS_TYPE = 0
CLASSIFICATION_TYPE = U
NORAD_CAT_ID   = 13403
ELEMENT_SET_NO = 999
REV_AT_EPOCH   = 37903
BSTAR          = .20324E-3
MEAN_MOTION_DOT = .5132E-4
MEAN_MOTION_DDOT = 0

CCSDS_OMM_VERS = 2.0
CREATION_DATE  = 
ORIGINATOR     = 

OBJECT_NAME    = SL-14 R/B
OBJECT_ID      = 1982-092B
CENTER_NAME    = EARTH
REF_FRAME      = TEME
TIME_SYSTEM    = UTC
MEAN_ELEMENT_THEORY = SGP/SGP4

EPOCH          = 2026-03-18T02:51:13.716864
MEAN_MOTION    = 14.86674179
ECCENTRICITY   = .0018751
INCLINATION    = 82.5677
RA_OF_ASC_NODE = 133.5152
ARG_OF_PERICENTER = 273.4594
MEAN_ANOMALY   = 119.8772

EPHEMERIS_TYPE = 0
CLASSIFICATION_TYPE = U
NORAD_CAT_ID   = 13553
ELEMENT_SET_NO = 999
REV_AT_EPOCH   = 33018
BSTAR          = .41643603E-4
MEAN_MOTION_DOT = .395E-5
MEAN_MOTION_DDOT = 0

CCSDS_OMM_VERS = 2.0
CREATION_DATE  = 
ORIGINATOR     = 

OBJECT_NAME    = SL-3 R/B
OBJECT_ID      = 1983-010B
CENTER_NAME    = EARTH
REF_FRAME      = TEME
TIME_SYSTEM    = UTC
MEAN_ELEMENT_THEORY = SGP/SGP4

EPOCH          = 2026-03-18T11:53:48.996672
MEAN_MOTION    = 15.46660792
ECCENTRICITY   = .001714
INCLINATION    = 81.1067
RA_OF_ASC_NODE = 351.4502
ARG_OF_PERICENTER = 22.0984
MEAN_ANOMALY   = 338.0996

EPHEMERIS_TYPE = 0
CLASSIFICATION_TYPE = U
NORAD_CAT_ID   = 13819
ELEMENT_SET_NO = 999
REV_AT_EPOCH   = 35930
BSTAR          = .25068E-3
MEAN_MOTION_DOT = .12612E-3
MEAN_MOTION_DDOT = 0

CCSDS_OMM_VERS = 2.0
CREATION_DATE  = 
ORIGINATOR     = 

OBJECT_NAME    = SL-3 R/B
OBJECT_ID      = 1983-075B
CENTER_NAME    = EARTH
REF_FRAME      = TEME
TIME_SYSTEM    = UTC
MEAN_ELEMENT_THEORY = SGP/SGP4

EPOCH          = 2026-03-18T11:13:04.058112
MEAN_MOTION    = 15.38622442
ECCENTRICITY   = .0021043
INCLINATION    = 97.6135
RA_OF_ASC_NODE = 82.3779
ARG_OF_PERICENTER = 193.0654
MEAN_ANOMALY   = 167.0048

EPHEMERIS_TYPE = 0
CLASSIFICATION_TYPE = U
NORAD_CAT_ID   = 14208
ELEMENT_SET_NO = 999
REV_AT_EPOCH   = 33150
BSTAR          = .21725E-3
MEAN_MOTION_DOT = .8259E-4
MEAN_MOTION_DDOT = 0

CCSDS_OMM_VERS = 2.0
CREATION_DATE  = 
ORIGINATOR     = 

OBJECT_NAME    = COSMOS 1536
OBJECT_ID      = 1984-013A
CENTER_NAME    = EARTH
REF_FRAME      = TEME
TIME_SYSTEM    = UTC
MEAN_ELEMENT_THEORY = SGP/SGP4

EPOCH          = 2026-03-18T07:43:29.662176
MEAN_MOTION    = 15.23938820
ECCENTRICITY   = .0012558
INCLINATION    = 82.5413
RA_OF_ASC_NODE = 99.2666
ARG_OF_PERICENTER = 248.9361
MEAN_ANOMALY   = 111.0533

EPHEMERIS_TYPE = 0
CLASSIFICATION_TYPE = U
NORAD_CAT_ID   = 14699
ELEMENT_SET_NO = 999
REV_AT_EPOCH   = 27393
BSTAR          = .2119E-3
MEAN_MOTION_DOT = .5164E-4
MEAN_MOTION_DDOT = 0

CCSDS_OMM_VERS = 2.0
CREATION_DATE  = 
ORIGINATOR     = 

OBJECT_NAME    = SL-14 R/B
OBJECT_ID      = 1984-027B
CENTER_NAME    = EARTH
REF_FRAME      = TEME
TIME_SYSTEM    = UTC
MEAN_ELEMENT_THEORY = SGP/SGP4

EPOCH          = 2026-03-18T10:43:38.861184
MEAN_MOTION    = 14.85985805
ECCENTRICITY   = .0016753
INCLINATION    = 82.5397
RA_OF_ASC_NODE = 236.7977
ARG_OF_PERICENTER = 307.4941
MEAN_ANOMALY   = 52.4752

EPHEMERIS_TYPE = 0
CLASSIFICATION_TYPE = U
NORAD_CAT_ID   = 14820
ELEMENT_SET_NO = 999
REV_AT_EPOCH   = 24893
BSTAR          = .54615E-4
MEAN_MOTION_DOT = .502E-5
MEAN_MOTION_DDOT = 0

CCSDS_OMM_VERS = 2.0
CREATION_DATE  = 
ORIGINATOR     = 

OBJECT_NAME    = SL-8 R/B
OBJECT_ID      = 1985-006B
CENTER_NAME    = EARTH
REF_FRAME      = TEME
TIME_SYSTEM    = UTC
MEAN_ELEMENT_THEORY = SGP/SGP4

EPOCH          = 2026-03-17T22:45:37.223136
MEAN_MOTION    = 14.37789274
ECCENTRICITY   = .00180977
INCLINATION    = 74.0436
RA_OF_ASC_NODE = 245.9500
ARG_OF_PERICENTER = 161.5600
MEAN_ANOMALY   = 313.5292

EPHEMERIS_TYPE = 0
CLASSIFICATION_TYPE = U
NORAD_CAT_ID   = 15483
ELEMENT_SET_NO = 999
REV_AT_EPOCH   = 15521
BSTAR          = .10830048E-3
MEAN_MOTION_DOT = .301E-5
MEAN_MOTION_DDOT = 0

CCSDS_OMM_VERS = 2.0
CREATION_DATE  = 
ORIGINATOR     = 

OBJECT_NAME    = SL-12 R/B(2)
OBJECT_ID      = 1985-042D
CENTER_NAME    = EARTH
REF_FRAME      = TEME
TIME_SYSTEM    = UTC
MEAN_ELEMENT_THEORY = SGP/SGP4

EPOCH          = 2026-03-18T10:15:14.575392
MEAN_MOTION    = 14.21984888
ECCENTRICITY   = .0032985
INCLINATION    = 71.1067
RA_OF_ASC_NODE = 69.2668
ARG_OF_PERICENTER = 113.7231
MEAN_ANOMALY   = 359.6598

EPHEMERIS_TYPE = 0
CLASSIFICATION_TYPE = U
NORAD_CAT_ID   = 15772
ELEMENT_SET_NO = 999
REV_AT_EPOCH   = 11563
BSTAR          = .27577E-4
MEAN_MOTION_DOT = .14E-6
MEAN_MOTION_DDOT = 0

CCSDS_OMM_VERS = 2.0
CREATION_DATE  = 
ORIGINATOR     = 

OBJECT_NAME    = SL-14 R/B
OBJECT_ID      = 1985-069B
CENTER_NAME    = EARTH
REF_FRAME      = TEME
TIME_SYSTEM    = UTC
MEAN_ELEMENT_THEORY = SGP/SGP4

EPOCH          = 2026-03-18T07:04:02.214048
MEAN_MOTION    = 14.86443028
ECCENTRICITY   = .0019257
INCLINATION    = 82.5298
RA_OF_ASC_NODE = 16.8434
ARG_OF_PERICENTER = 159.3465
MEAN_ANOMALY   = 200.8535

EPHEMERIS_TYPE = 0
CLASSIFICATION_TYPE = U
NORAD_CAT_ID   = 15945
ELEMENT_SET_NO = 999
REV_AT_EPOCH   = 17411
BSTAR          = .54443E-4
MEAN_MOTION_DOT = .507E-5
MEAN_MOTION_DDOT = 0

CCSDS_OMM_VERS = 2.0
CREATION_DATE  = 
ORIGINATOR     = 

OBJECT_NAME    = SL-16 R/B
OBJECT_ID      = 1985-097B
CENTER_NAME    = EARTH
REF_FRAME      = TEME
TIME_SYSTEM    = UTC
MEAN_ELEMENT_THEORY = SGP/SGP4

EPOCH          = 2026-03-18T13:12:57.125088
MEAN_MOTION    = 14.16599495
ECCENTRICITY   = .0009637
INCLINATION    = 71.0013
RA_OF_ASC_NODE = 121.8995
ARG_OF_PERICENTER = 248.8944
MEAN_ANOMALY   = 273.7290

EPHEMERIS_TYPE = 0
CLASSIFICATION_TYPE = U
NORAD_CAT_ID   = 16182
ELEMENT_SET_NO = 999
REV_AT_EPOCH   = 8848
BSTAR          = .15023E-3
MEAN_MOTION_DOT = .252E-5
MEAN_MOTION_DDOT = 0

CCSDS_OMM_VERS = 2.0
CREATION_DATE  = 
ORIGINATOR     = 

OBJECT_NAME    = SL-14 R/B
OBJECT_ID      = 1986-006B
CENTER_NAME    = EARTH
REF_FRAME      = TEME
TIME_SYSTEM    = UTC
MEAN_ELEMENT_THEORY = SGP/SGP4

EPOCH          = 2026-03-18T11:18:32.672736
MEAN_MOTION    = 14.86827891
ECCENTRICITY   = .0075206
INCLINATION    = 82.5237
RA_OF_ASC_NODE = 251.4698
ARG_OF_PERICENTER = 243.1269
MEAN_ANOMALY   = 116.2247

EPHEMERIS_TYPE = 0
CLASSIFICATION_TYPE = U
NORAD_CAT_ID   = 16496
ELEMENT_SET_NO = 999
REV_AT_EPOCH   = 15051
BSTAR          = .74548E-4
MEAN_MOTION_DOT = .725E-5
MEAN_MOTION_DDOT = 0

CCSDS_OMM_VERS = 2.0
CREATION_DATE  = 
ORIGINATOR     = 

OBJECT_NAME    = COSMOS 1743
OBJECT_ID      = 1986-034A
CENTER_NAME    = EARTH
REF_FRAME      = TEME
TIME_SYSTEM    = UTC
MEAN_ELEMENT_THEORY = SGP/SGP4

EPOCH          = 2026-03-18T08:55:39.952416
MEAN_MOTION    = 15.59207926
ECCENTRICITY   = .0002168
INCLINATION    = 82.5280
RA_OF_ASC_NODE = 64.7117
ARG_OF_PERICENTER = 216.4499
MEAN_ANOMALY   = 143.6610

EPHEMERIS_TYPE = 0
CLASSIFICATION_TYPE = U
NORAD_CAT_ID   = 16719
ELEMENT_SET_NO = 999
REV_AT_EPOCH   = 18160
BSTAR          = .41107E-3
MEAN_MOTION_DOT = .32322E-3
MEAN_MOTION_DDOT = 0

